{"type": "FeatureCollection", "features": [ {"type": "Feature", "properties": {"norad_id": 41836, "name": "HIMAWARI-9", "group": "weather", "lat": -0.029373176063906502, "lon": -20.02887585713325, "alt_km": 35779.37721909106, "timestamp": "2025-12-25T07:00:33.686117+00:00", "meta": {"OBJECT_NAME": "HIMAWARI-9", "OBJECT_ID": "2016-064A", "EPOCH": "2025-12-23T22:52:38.784288", "MEAN_MOTION": 1.00271828, "ECCENTRICITY": 0.00016373, "INCLINATION": 0.0175, "RA_OF_ASC_NODE": 40.3208, "ARG_OF_PERICENTER": 292.8784, "MEAN_ANOMALY": 243.4785, "EPHEMERIS_TYPE": 0, "CLASSIFICATION_TYPE": "U", "NORAD_CAT_ID": 41836, "ELEMENT_SET_NO": 999, "REV_AT_EPOCH": 3345, "BSTAR": 0, "MEAN_MOTION_DOT": 0, "MEAN_MOTION_DDOT": 0}, "tle": {"line1": "1 41836U 16064A   25357.95322667  .00000000  00000+0  00000+0 0  9999", "line2": "2 41836   0.0175  40.3208 0001637 292.8784 243.4785  1.00271828 33458"}}, "geometry": {"type": "Point", "coordinates": [-20.02887585713325, -0.029373176063906502]}}, {"type": "Feature", "properties": {"norad_id": 41866, "name": "GOES 16", "group": "weather", "lat": 0.01045895318476467, "lon": 94.52782995094286, "alt_km": 35798.260970034906, "timestamp": "2025-12-25T07:00:33.686130+00:00", "meta": {"OBJECT_NAME": "GOES 16", "OBJECT_ID": "2016-071A", "EPOCH": "2025-12-24T12:07:46.794144", "MEAN_MOTION": 1.00273928, "ECCENTRICITY": 0.00030223, "INCLINATION": 0.0751, "RA_OF_ASC_NODE": 101.9123, "ARG_OF_PERICENTER": 169.4084, "MEAN_ANOMALY": 259.2386, "EPHEMERIS_TYPE": 0, "CLASSIFICATION_TYPE": "U", "NORAD_CAT_ID": 41866, "ELEMENT_SET_NO": 999, "REV_AT_EPOCH": 3335, "BSTAR": 0, "MEAN_MOTION_DOT": -7e-07, "MEAN_MOTION_DDOT": 0}, "tle": {"line1": "1 41866U 16071A   25358.50540271 -.00000070  00000+0  00000+0 0  9993", "line2": "2 41866   0.0751 101.9123 0003022 169.4084 259.2386  1.00273928 33357"}}, "geometry": {"type": "Point", "coordinates": [94.52782995094286, 0.01045895318476467]}}, {"type": "Feature", "properties": {"norad_id": 41882, "name": "FENGYUN 4A", "group": "weather", "lat": -1.6529886966551066, "lon": -37.16598204773962, "alt_km": 35791.07180908465, "timestamp": "2025-12-25T07:00:33.686145+00:00", "meta": {"OBJECT_NAME": "FENGYUN 4A", "OBJECT_ID": "2016-077A", "EPOCH": "2025-12-24T22:14:48.511104", "MEAN_MOTION": 1.00263343, "ECCENTRICITY": 0.00044942, "INCLINATION": 1.878, "RA_OF_ASC_NODE": 82.2718, "ARG_OF_PERICENTER": 143.1707, "MEAN_ANOMALY": 325.5712, "EPHEMERIS_TYPE": 0, "CLASSIFICATION_TYPE": "U", "NORAD_CAT_ID": 41882, "ELEMENT_SET_NO": 999, "REV_AT_EPOCH": 3318, "BSTAR": 0, "MEAN_MOTION_DOT": -3.37e-06, "MEAN_MOTION_DDOT": 0}, "tle": {"line1": "1 41882U 16077A   25358.92695036 -.00000337  00000+0  00000+0 0  9999", "line2": "2 41882   1.8780  82.2718 0004494 143.1707 325.5712  1.00263343 33183"}}, "geometry": {"type": "Point", "coordinates": [-37.16598204773962, -1.6529886966551066]}}, {"type": "Feature", "properties": {"norad_id": 41884, "name": "CYGFM05", "group": "weather", "lat": -24.16011718886058, "lon": -174.94630302225912, "alt_km": 420.76960246307044, "timestamp": "2025-12-25T07:00:33.686157+00:00", "meta": {"OBJECT_NAME": "CYGFM05", "OBJECT_ID": "2016-078A", "EPOCH": "2025-12-24T14:33:43.495488", "MEAN_MOTION": 15.48073343, "ECCENTRICITY": 0.00106298, "INCLINATION": 34.9606, "RA_OF_ASC_NODE": 329.5892, "ARG_OF_PERICENTER": 285.346, "MEAN_ANOMALY": 74.6087, "EPHEMERIS_TYPE": 0, "CLASSIFICATION_TYPE": "U", "NORAD_CAT_ID": 41884, "ELEMENT_SET_NO": 999, "REV_AT_EPOCH": 50160, "BSTAR": 0.00039126691, "MEAN_MOTION_DOT": 0.00021189, "MEAN_MOTION_DDOT": 0}, "tle": {"line1": "1 41884U 16078A   25358.60675342  .00021189  00000+0  39127-3 0  9998", "line2": "2 41884  34.9606 329.5892 0010629 285.3460  74.6087 15.48073343501601"}}, "geometry": {"type": "Point", "coordinates": [-174.94630302225912, -24.16011718886058]}}, {"type": "Feature", "properties": {"norad_id": 41885, "name": "CYGFM04", "group": "weather", "lat": -26.027868588903512, "lon": 163.91506609930724, "alt_km": 415.23267280748223, "timestamp": "2025-12-25T07:00:33.686168+00:00", "meta": {"OBJECT_NAME": "CYGFM04", "OBJECT_ID": "2016-078B", "EPOCH": "2025-12-24T22:17:50.660448", "MEAN_MOTION": 15.50876789, "ECCENTRICITY": 0.00091647, "INCLINATION": 34.935, "RA_OF_ASC_NODE": 301.9035, "ARG_OF_PERICENTER": 312.7031, "MEAN_ANOMALY": 47.2919, "EPHEMERIS_TYPE": 0, "CLASSIFICATION_TYPE": "U", "NORAD_CAT_ID": 41885, "ELEMENT_SET_NO": 999, "REV_AT_EPOCH": 50183, "BSTAR": 0.00038974891, "MEAN_MOTION_DOT": 0.00023306, "MEAN_MOTION_DDOT": 0}, "tle": {"line1": "1 41885U 16078B   25358.92905857  .00023306  00000+0  38975-3 0  9994", "line2": "2 41885  34.9350 301.9035 0009164 312.7031  47.2919 15.50876789501835"}}, "geometry": {"type": "Point", "coordinates": [163.91506609930724, -26.027868588903512]}}, {"type": "Feature", "properties": {"norad_id": 41886, "name": "CYGFM02", "group": "weather", "lat": -27.40988693692978, "lon": -110.27820035923517, "alt_km": 404.44593148682907, "timestamp": "2025-12-25T07:00:33.686179+00:00", "meta": {"OBJECT_NAME": "CYGFM02", "OBJECT_ID": "2016-078C", "EPOCH": "2025-12-24T21:58:39.424512", "MEAN_MOTION": 15.52292842, "ECCENTRICITY": 0.00107792, "INCLINATION": 34.9438, "RA_OF_ASC_NODE": 300.1575, "ARG_OF_PERICENTER": 314.0871, "MEAN_ANOMALY": 45.8964, "EPHEMERIS_TYPE": 0, "CLASSIFICATION_TYPE": "U", "NORAD_CAT_ID": 41886, "ELEMENT_SET_NO": 999, "REV_AT_EPOCH": 50196, "BSTAR": 0.00040835072, "MEAN_MOTION_DOT": 0.00025722, "MEAN_MOTION_DDOT": 0}, "tle": {"line1": "1 41886U 16078C   25358.91573408  .00025722  00000+0  40835-3 0  9999", "line2": "2 41886  34.9438 300.1575 0010779 314.0871  45.8964 15.52292842501966"}}, "geometry": {"type": "Point", "coordinates": [-110.27820035923517, -27.40988693692978]}}, {"type": "Feature", "properties": {"norad_id": 41887, "name": "CYGFM01", "group": "weather", "lat": -30.811092860201136, "lon": -91.29212179245961, "alt_km": 415.48623029389546, "timestamp": "2025-12-25T07:00:33.686189+00:00", "meta": {"OBJECT_NAME": "CYGFM01", "OBJECT_ID": "2016-078D", "EPOCH": "2025-12-24T08:04:31.386432", "MEAN_MOTION": 15.48653948, "ECCENTRICITY": 0.00104192, "INCLINATION": 34.9437, "RA_OF_ASC_NODE": 333.6229, "ARG_OF_PERICENTER": 275.7216, "MEAN_ANOMALY": 84.2318, "EPHEMERIS_TYPE": 0, "CLASSIFICATION_TYPE": "U", "NORAD_CAT_ID": 41887, "ELEMENT_SET_NO": 999, "REV_AT_EPOCH": 50150, "BSTAR": 0.00040604165, "MEAN_MOTION_DOT": 0.00022447, "MEAN_MOTION_DDOT": 0}, "tle": {"line1": "1 41887U 16078D   25358.33647438  .00022447  00000+0  40604-3 0  9996", "line2": "2 41887  34.9437 333.6229 0010419 275.7216  84.2318 15.48653948501503"}}, "geometry": {"type": "Point", "coordinates": [-91.29212179245961, -30.811092860201136]}}, {"type": "Feature", "properties": {"norad_id": 41888, "name": "CYGFM08", "group": "weather", "lat": 21.79604731955594, "lon": -14.85073232656992, "alt_km": 412.99816032701074, "timestamp": "2025-12-25T07:00:33.686200+00:00", "meta": {"OBJECT_NAME": "CYGFM08", "OBJECT_ID": "2016-078E", "EPOCH": "2025-12-24T21:33:38.998656", "MEAN_MOTION": 15.49916891, "ECCENTRICITY": 0.00115017, "INCLINATION": 34.9462, "RA_OF_ASC_NODE": 312.7945, "ARG_OF_PERICENTER": 303.6657, "MEAN_ANOMALY": 56.2968, "EPHEMERIS_TYPE": 0, "CLASSIFICATION_TYPE": "U", "NORAD_CAT_ID": 41888, "ELEMENT_SET_NO": 999, "REV_AT_EPOCH": 50182, "BSTAR": 0.00039584074, "MEAN_MOTION_DOT": 0.00022895, "MEAN_MOTION_DDOT": 0}, "tle": {"line1": "1 41888U 16078E   25358.89836804  .00022895  00000+0  39584-3 0  9997", "line2": "2 41888  34.9462 312.7945 0011501 303.6657  56.2968 15.49916891501823"}}, "geometry": {"type": "Point", "coordinates": [-14.85073232656992, 21.79604731955594]}}, {"type": "Feature", "properties": {"norad_id": 41890, "name": "CYGFM07", "group": "weather", "lat": 27.905069261517585, "lon": -11.558945100285401, "alt_km": 410.16427487842157, "timestamp": "2025-12-25T07:00:33.686212+00:00", "meta": {"OBJECT_NAME": "CYGFM07", "OBJECT_ID": "2016-078G", "EPOCH": "2025-12-24T21:30:10.086912", "MEAN_MOTION": 15.50512486, "ECCENTRICITY": 0.00094373, "INCLINATION": 34.9478, "RA_OF_ASC_NODE": 301.7222, "ARG_OF_PERICENTER": 318.3124, "MEAN_ANOMALY": 41.6878, "EPHEMERIS_TYPE": 0, "CLASSIFICATION_TYPE": "U", "NORAD_CAT_ID": 41890, "ELEMENT_SET_NO": 999, "REV_AT_EPOCH": 50184, "BSTAR": 0.00040570936, "MEAN_MOTION_DOT": 0.00023952, "MEAN_MOTION_DDOT": 0}, "tle": {"line1": "1 41890U 16078G   25358.89595008  .00023952  00000+0  40571-3 0  9991", "line2": "2 41890  34.9478 301.7222 0009437 318.3124  41.6878 15.50512486501840"}}, "geometry": {"type": "Point", "coordinates": [-11.558945100285401, 27.905069261517585]}}, {"type": "Feature", "properties": {"norad_id": 41891, "name": "CYGFM03", "group": "weather", "lat": -31.182673307227038, "lon": -178.86389737227157, "alt_km": 414.6510771052099, "timestamp": "2025-12-25T07:00:33.686223+00:00", "meta": {"OBJECT_NAME": "CYGFM03", "OBJECT_ID": "2016-078H", "EPOCH": "2025-12-24T22:13:53.859648", "MEAN_MOTION": 15.50407421, "ECCENTRICITY": 0.00092367, "INCLINATION": 34.9431, "RA_OF_ASC_NODE": 303.4495, "ARG_OF_PERICENTER": 305.5397, "MEAN_ANOMALY": 54.4464, "EPHEMERIS_TYPE": 0, "CLASSIFICATION_TYPE": "U", "NORAD_CAT_ID": 41891, "ELEMENT_SET_NO": 999, "REV_AT_EPOCH": 50182, "BSTAR": 0.00039393722, "MEAN_MOTION_DOT": 0.00023164, "MEAN_MOTION_DDOT": 0}, "tle": {"line1": "1 41891U 16078H   25358.92631782  .00023164  00000+0  39394-3 0  9992", "line2": "2 41891  34.9431 303.4495 0009236 305.5397  54.4464 15.50407421501821"}}, "geometry": {"type": "Point", "coordinates": [-178.86389737227157, -31.182673307227038]}}]}